XRISM                   
1 57800U 23137A   24032.57279389  .00004967  00000+0  38924-3 0  9991
2 57800  31.0026 161.0038 0009839 295.7761  64.1859 14.99423672 22070
